{
  "norad_id": 57771,
  "name": "STARLINK-30397",
  "history": [
    {
      "epoch": "2026-04-14T09:16:27.206400Z",
      "apogee_km": 483.66344760204356,
      "perigee_km": 482.3886435081786,
      "latitude_deg": -2.9092205720463077e-05,
      "longitude_deg": 11.435117056038989,
      "height_km": 482.7583220524593,
      "semi_major_axis_km": 6861.16304555511,
      "eccentricity": 9.29e-05,
      "inclination_deg": 43.0021,
      "raan_deg": 353.1121,
      "arg_perigee_deg": 273.9818,
      "mean_anomaly_deg": 86.0927,
      "mean_motion_rev_day": 15.27587698
    },
    {
      "epoch": "2026-04-15T00:57:59.979456Z",
      "apogee_km": 483.5834955819864,
      "perigee_km": 482.38046697980735,
      "latitude_deg": -3.5649050371892615e-05,
      "longitude_deg": 131.71099118485483,
      "height_km": 482.70845022247283,
      "semi_major_axis_km": 6861.118981280896,
      "eccentricity": 8.767e-05,
      "inclination_deg": 43.0025,
      "raan_deg": 349.419,
      "arg_perigee_deg": 274.7744,
      "mean_anomaly_deg": 85.3007,
      "mean_motion_rev_day": 15.27602414
    },
    {
      "epoch": "2026-04-16T08:21:08.970336Z",
      "apogee_km": 483.7156829618807,
      "perigee_km": 482.41754323828263,
      "latitude_deg": -5.895155396705591e-06,
      "longitude_deg": 12.24839322321538,
      "height_km": 482.9233323572611,
      "semi_major_axis_km": 6861.203613100081,
      "eccentricity": 9.46e-05,
      "inclination_deg": 43.0033,
      "raan_deg": 342.0328,
      "arg_perigee_deg": 262.9151,
      "mean_anomaly_deg": 97.1593,
      "mean_motion_rev_day": 15.2757415
    },
    {
      "epoch": "2026-04-17T22:00:54.505728Z",
      "apogee_km": 483.86110147079944,
      "perigee_km": 482.2473492945892,
      "latitude_deg": 1.8316226734618316e-05,
      "longitude_deg": 156.9009405142766,
      "height_km": 483.0220015658997,
      "semi_major_axis_km": 6861.191225382694,
      "eccentricity": 0.0001176,
      "inclination_deg": 43.0015,
      "raan_deg": 333.1718,
      "arg_perigee_deg": 256.296,
      "mean_anomaly_deg": 103.7761,
      "mean_motion_rev_day": 15.27578287
    },
    {
      "epoch": "2026-04-18T21:33:14.931072Z",
      "apogee_km": 483.83784392564576,
      "perigee_km": 482.21449272001973,
      "latitude_deg": 8.686887965584637e-06,
      "longitude_deg": 157.30821206507144,
      "height_km": 482.88972600880237,
      "semi_major_axis_km": 6861.1631683228325,
      "eccentricity": 0.0001183,
      "inclination_deg": 43.0027,
      "raan_deg": 327.6309,
      "arg_perigee_deg": 263.8641,
      "mean_anomaly_deg": 96.2076,
      "mean_motion_rev_day": 15.27587657
    },
    {
      "epoch": "2026-04-19T21:05:34.551168Z",
      "apogee_km": 484.4061681614394,
      "perigee_km": 481.58075463743444,
      "latitude_deg": 1.106249122578548e-06,
      "longitude_deg": 157.7209489932203,
      "height_km": 482.6960563549008,
      "semi_major_axis_km": 6861.130461399436,
      "eccentricity": 0.0002059,
      "inclination_deg": 43.0006,
      "raan_deg": 322.0921,
      "arg_perigee_deg": 273.0309,
      "mean_anomaly_deg": 87.0307,
      "mean_motion_rev_day": 15.2759858
    },
    {
      "epoch": "2026-04-20T06:30:30.856608Z",
      "apogee_km": 484.0985281122903,
      "perigee_km": 481.9317762626288,
      "latitude_deg": 6.2339718702877555e-06,
      "longitude_deg": 13.882861098136262,
      "height_km": 482.3299011798407,
      "semi_major_axis_km": 6861.152152187459,
      "eccentricity": 0.0001579,
      "inclination_deg": 43.0024,
      "raan_deg": 319.8753,
      "arg_perigee_deg": 295.2601,
      "mean_anomaly_deg": 64.8087,
      "mean_motion_rev_day": 15.27591336
    },
    {
      "epoch": "2026-04-21T20:10:17.599872Z",
      "apogee_km": 484.03693796310563,
      "perigee_km": 482.09247339971625,
      "latitude_deg": -7.546257999901918e-06,
      "longitude_deg": 158.53051519048162,
      "height_km": 482.65944569696813,
      "semi_major_axis_km": 6861.201705681411,
      "eccentricity": 0.0001417,
      "inclination_deg": 43.003,
      "raan_deg": 311.0145,
      "arg_perigee_deg": 280.8083,
      "mean_anomaly_deg": 79.2609,
      "mean_motion_rev_day": 15.27574787
    },
    {
      "epoch": "2026-04-22T19:42:38.534976Z",
      "apogee_km": 484.0003593902238,
      "perigee_km": 482.05727723047767,
      "latitude_deg": 1.2683418293240023e-05,
      "longitude_deg": 158.93748626508088,
      "height_km": 482.5553152471213,
      "semi_major_axis_km": 6861.16581831035,
      "eccentricity": 0.0001416,
      "inclination_deg": 43.0026,
      "raan_deg": 305.4754,
      "arg_perigee_deg": 284.9419,
      "mean_anomaly_deg": 75.1276,
      "mean_motion_rev_day": 15.27586772
    },
    {
      "epoch": "2026-04-22T21:16:47.792928Z",
      "apogee_km": 483.97905989305946,
      "perigee_km": 482.05244819972177,
      "latitude_deg": 2.1004133658210524e-05,
      "longitude_deg": 134.96427385170637,
      "height_km": 482.55444113642693,
      "semi_major_axis_km": 6861.15275404639,
      "eccentricity": 0.0001404,
      "inclination_deg": 43.0019,
      "raan_deg": 305.1052,
      "arg_perigee_deg": 284.3177,
      "mean_anomaly_deg": 75.7519,
      "mean_motion_rev_day": 15.27591135
    },
    {
      "epoch": "2026-04-24T20:21:29.054016Z",
      "apogee_km": 483.9508481971452,
      "perigee_km": 482.14498432718483,
      "latitude_deg": 4.6929638247744565e-06,
      "longitude_deg": 135.7828024226268,
      "height_km": 482.78295556974825,
      "semi_major_axis_km": 6861.184916262165,
      "eccentricity": 0.0001316,
      "inclination_deg": 42.9992,
      "raan_deg": 294.0291,
      "arg_perigee_deg": 272.6348,
      "mean_anomaly_deg": 87.4353,
      "mean_motion_rev_day": 15.27580394
    },
    {
      "epoch": "2026-04-25T18:19:40.255104Z",
      "apogee_km": 483.8577056750928,
      "perigee_km": 482.1808390821234,
      "latitude_deg": 3.149965170486791e-05,
      "longitude_deg": 160.164092906315,
      "height_km": 482.79487147815854,
      "semi_major_axis_km": 6861.156272378607,
      "eccentricity": 0.0001222,
      "inclination_deg": 42.9983,
      "raan_deg": 288.8593,
      "arg_perigee_deg": 270.0519,
      "mean_anomaly_deg": 90.0193,
      "mean_motion_rev_day": 15.2758996
    },
    {
      "epoch": "2026-04-26T19:26:10.721184Z",
      "apogee_km": 483.92545751078615,
      "perigee_km": 482.19122177673853,
      "latitude_deg": 1.0877444813183797e-05,
      "longitude_deg": 136.59756142214786,
      "height_km": 482.80419536573646,
      "semi_major_axis_km": 6861.195339643762,
      "eccentricity": 0.00012638,
      "inclination_deg": 42.999,
      "raan_deg": 282.9509,
      "arg_perigee_deg": 272.0239,
      "mean_anomaly_deg": 88.0468,
      "mean_motion_rev_day": 15.27576913
    },
    {
      "epoch": "2026-04-27T18:58:31.641600Z",
      "apogee_km": 483.9858857951267,
      "perigee_km": 482.1072937282506,
      "latitude_deg": -4.955355062108045e-05,
      "longitude_deg": 137.00311101452718,
      "height_km": 482.81527404130196,
      "semi_major_axis_km": 6861.183589761688,
      "eccentricity": 0.0001369,
      "inclination_deg": 42.9999,
      "raan_deg": 277.4104,
      "arg_perigee_deg": 270.4872,
      "mean_anomaly_deg": 89.5822,
      "mean_motion_rev_day": 15.27580837
    },
    {
      "epoch": "2026-04-28T18:30:52.595712Z",
      "apogee_km": 484.0216597828339,
      "perigee_km": 482.0717113793926,
      "latitude_deg": -2.9139105494884367e-05,
      "longitude_deg": 137.40970600247826,
      "height_km": 482.99832228120886,
      "semi_major_axis_km": 6861.183685581113,
      "eccentricity": 0.0001421,
      "inclination_deg": 42.9989,
      "raan_deg": 271.871,
      "arg_perigee_deg": 259.655,
      "mean_anomaly_deg": 100.4141,
      "mean_motion_rev_day": 15.27580805
    },
    {
      "epoch": "2026-04-29T10:12:26.466048Z",
      "apogee_km": 484.0027236126589,
      "perigee_km": 482.1032717736971,
      "latitude_deg": -3.328196210121103e-05,
      "longitude_deg": -102.31980254950767,
      "height_km": 482.9974052984489,
      "semi_major_axis_km": 6861.189997693177,
      "eccentricity": 0.00013842,
      "inclination_deg": 42.9985,
      "raan_deg": 268.1771,
      "arg_perigee_deg": 259.8158,
      "mean_anomaly_deg": 100.2537,
      "mean_motion_rev_day": 15.27578697
    },
    {
      "epoch": "2026-04-30T09:44:47.192928Z",
      "apogee_km": 484.1069660480116,
      "perigee_km": 481.97615843372296,
      "latitude_deg": -1.1292244783250139e-07,
      "longitude_deg": -101.91234532685758,
      "height_km": 483.1202965635677,
      "semi_major_axis_km": 6861.178562240867,
      "eccentricity": 0.00015528,
      "inclination_deg": 42.9987,
      "raan_deg": 262.6376,
      "arg_perigee_deg": 253.5249,
      "mean_anomaly_deg": 106.5432,
      "mean_motion_rev_day": 15.27582516
    },
    {
      "epoch": "2026-05-02T08:49:29.436384Z",
      "apogee_km": 483.67922251401615,
      "perigee_km": 482.47850973744426,
      "latitude_deg": -4.664594375393463e-05,
      "longitude_deg": -101.0968530241506,
      "height_km": 482.75410326041447,
      "semi_major_axis_km": 6861.21586612573,
      "eccentricity": 8.75e-05,
      "inclination_deg": 42.9972,
      "raan_deg": 251.5626,
      "arg_perigee_deg": 279.6569,
      "mean_anomaly_deg": 80.4183,
      "mean_motion_rev_day": 15.27570058
    },
    {
      "epoch": "2026-05-03T14:38:26.972160Z",
      "apogee_km": 484.4544541255509,
      "perigee_km": 481.69761872751496,
      "latitude_deg": -2.300386127221897e-05,
      "longitude_deg": 163.42093767277703,
      "height_km": 482.97662779163824,
      "semi_major_axis_km": 6861.213036426532,
      "eccentricity": 0.0002009,
      "inclination_deg": 43.0007,
      "raan_deg": 244.5446,
      "arg_perigee_deg": 264.8658,
      "mean_anomaly_deg": 95.1964,
      "mean_motion_rev_day": 15.27571003
    }
  ]
}